[{"OBJECT_NAME":"AFR-1","OBJECT_ID":"2023-084AJ","EPOCH":"2026-03-09T23:02:07.499328","MEAN_MOTION":15.27543824,"ECCENTRICITY":0.00099838,"INCLINATION":97.6099,"RA_OF_ASC_NODE":203.4313,"ARG_OF_PERICENTER":334.9676,"MEAN_ANOMALY":25.1077,"EPHEMERIS_TYPE":0,"CLASSIFICATION_TYPE":"U","NORAD_CAT_ID":56964,"ELEMENT_SET_NO":999,"REV_AT_EPOCH":15207,"BSTAR":0.00024843733,"MEAN_MOTION_DOT":6.624e-5,"MEAN_MOTION_DDOT":0},{"OBJECT_NAME":"STARLINK-30868","OBJECT_ID":"2023-178S","EPOCH":"2026-03-09T23:30:53.047296","MEAN_MOTION":15.30178321,"ECCENTRICITY":0.00011085,"INCLINATION":53.162,"RA_OF_ASC_NODE":359.8803,"ARG_OF_PERICENTER":81.8324,"MEAN_ANOMALY":278.2802,"EPHEMERIS_TYPE":0,"CLASSIFICATION_TYPE":"U","NORAD_CAT_ID":58390,"ELEMENT_SET_NO":999,"REV_AT_EPOCH":12993,"BSTAR":-5.1827259e-5,"MEAN_MOTION_DOT":-1.893e-5,"MEAN_MOTION_DDOT":0}]
